#cP2016  1  5  0  0  0.00000000      96   u+U UNDEF FIT  GFZ                    
## 1878 172800.00000000   900.00000000 57392 0.0000000000000                    
+   53   G01G02G03G05G06G07G08G09G11G12G13G14G15G16G17G18G19                    
+        G20G21G22G23G24G25G26G27G28G29G30G31G32R01R02R03R04                    
+        R05R06R07R08R09R10R11R12R13R14R15R16R18R19R20R21R22                    
+        R23R24 00 00 00 00 00 00 00 00 00 00 00 00 00 00 00                    
+         00 00 00 00 00 00 00 00 00 00 00 00 00 00 00 00 00                    
++         7  6  6  6  6  6  7  6  8  7  6  6  6  8  5  5  6                    
++         6  6  7  7  5  5  8  7  6  5  8  5  5 10  7  6  6                    
++         7  6  8  6 10  6  9  6  7 10  6 10  6  6 10  8  7                    
++         6 10  0  0  0  0  0  0  0  0  0  0  0  0  0  0  0                    
++         0  0  0  0  0  0  0  0  0  0  0  0  0  0  0  0  0                    
%c M  cc GPS ccc cccc cccc cccc cccc ccccc ccccc ccccc ccccc                    
%c cc cc ccc ccc cccc cccc cccc cccc ccccc ccccc ccccc ccccc                    
%f  1.2500000  1.025000000  0.00000000000  0.000000000000000                    
%f  0.0000000  0.000000000  0.00000000000  0.000000000000000                    
%i    0    0    0    0      0      0      0      0         0                    
%i    0    0    0    0      0      0      0      0         0                    
/* PCV:IGS08_1869 OL/AL:FES2004  NONE     YN CLK:CoN ORB:CoN                    
/*     GeoForschungsZentrum Potsdam                                             
/*                                                                              
/*                                                                              
*  2016  1  5 23 30  0.00000000                                                 
PG01 -22005.916831 -14104.492637  -5388.351629      8.418452                    
PG02   2539.009176  17174.527026  20609.294269    598.875717                    
PG03 -12691.274117 -17511.181004  15408.124499     -7.662876                    
PG05   1996.265898  26337.925257   1383.161481   -158.128455                    
PG06 -12153.018082  10634.150843  21087.856393    124.344948                    
PG07 -24563.809621  -4459.806364  -9484.303896    474.837179                    
PG08  -6408.557562 -13976.890218 -21600.732195    -18.949222                    
PG09 -22541.724898   5077.981432  13087.686478     43.875718                    
PG11 -19696.277869 -12129.577172 -13655.414133   -625.667185                    
PG12   9936.774852  20698.117882  13432.163724    358.811689                    
PG13  -3397.714251  17481.456259 -19871.800395   -176.443262                    
PG14  21721.762934 -15032.497683   2083.584117     10.989741                    
PG15  10660.967741  11819.981372 -21387.330852   -290.816406                    
PG16    218.427322 -26287.333549   1727.429238    -50.893334                    
PG17 -21590.383108  15242.488983   1283.927348   -198.211041                    
PG18  15611.583643  -2057.971078 -20874.987752    470.074519                    
PG19 -23559.520033  12737.605636  -1455.550985   -524.258888                    
PG20  13352.393661  19121.634699 -12812.268438    383.634210                    
PG21  23720.204700    753.572813 -11496.331362   -503.629321                    
PG22   7049.353280 -21872.256475 -12984.465705    414.454495                    
PG23 -16720.979096  -5764.722111  20106.756714   -153.469003                    
PG24  20506.741940  14968.578771  -8160.495808    -10.317125                    
PG25  14757.051170   7714.076105  20633.764225    -94.692251                    
PG26   5692.757341 -23142.734557  11698.237000   -198.268439                    
PG27   4368.387874 -18716.277998 -18293.273019     50.797027                    
PG28 -11847.675646  13882.237508 -18639.839904    493.336729                    
PG29  21577.095081  -1500.214552  15406.333998    650.786679                    
PG30 -19348.685198   3977.048160 -17794.804948     80.610746                    
PG31  10946.775090 -11084.176387  21675.849538    288.261560                    
PG32  -5196.189376 -25539.586024   6343.813745     71.276993                    
PR01   2352.796638 -24243.059974   7600.411259   -147.011592                    
PR02  -7124.971524 -12411.287881  21134.028024    170.105174                    
PR03 -12278.212682   6459.119435  21441.128075     59.249482                    
PR04 -10040.898538  21695.507340   8917.496981    152.100305                    
PR05  -1930.943541  24049.001095  -8286.028551      2.770795                    
PR06   7719.168050  11688.044386 -21344.527343     81.429767                    
PR07  12273.104610  -6670.816338 -21313.066679     -5.134143                    
PR08  10206.337908 -21441.187353  -9291.089111    -27.003462                    
PR09  18942.688652  16916.684430   2914.236817     23.544422                    
PR10  17025.694644   5582.875393  18107.505120      4.603864                    
PR11   5586.248776  -9362.980361  23058.412027     21.441056                    
PR12  -9639.688689 -18953.321005  14186.758819     31.563002                    
PR13 -19037.617351 -16663.311457  -3267.055152     11.784306                    
PR14 -16565.299598  -4581.140143 -18892.085285    265.029024                    
PR15  -6343.948900   8473.298509 -23198.115454     61.047036                    
PR16  10227.901627  19051.589322 -13492.817301     27.563272                    
PR18 -19052.811815  11201.570803  12805.486871     83.515874                    
PR19  -1112.535415  11146.765715  22918.683898   -144.954577                    
PR20  16995.034841   4539.630985  18458.837830   -213.057930                    
PR21  24769.534980  -4517.173357   4192.802586     45.554278                    
PR22  18634.636046 -11232.466771 -13198.010860    187.388356                    
PR23    717.187351 -11162.471212 -22929.186155    -67.077032                    
PR24 -16100.387938  -4917.882201 -19186.010520   -132.508278                    
EOF                                     
